[{"OBJECT_NAME":"KUIPER-00126","OBJECT_ID":"2025-228J","EPOCH":"2026-03-09T04:31:57.445248","MEAN_MOTION":14.79934112,"ECCENTRICITY":9.562e-5,"INCLINATION":51.9024,"RA_OF_ASC_NODE":2.8184,"ARG_OF_PERICENTER":103.8093,"MEAN_ANOMALY":256.2976,"EPHEMERIS_TYPE":0,"CLASSIFICATION_TYPE":"U","NORAD_CAT_ID":65955,"ELEMENT_SET_NO":999,"REV_AT_EPOCH":2315,"BSTAR":0.00032955601,"MEAN_MOTION_DOT":2.292e-5,"MEAN_MOTION_DDOT":0},{"OBJECT_NAME":"DELTA 1 R\/B(1)","OBJECT_ID":"1977-048B","EPOCH":"2026-03-09T10:59:30.987456","MEAN_MOTION":13.38972094,"ECCENTRICITY":0.07269425,"INCLINATION":28.4195,"RA_OF_ASC_NODE":233.6552,"ARG_OF_PERICENTER":263.7493,"MEAN_ANOMALY":87.9832,"EPHEMERIS_TYPE":0,"CLASSIFICATION_TYPE":"U","NORAD_CAT_ID":10062,"ELEMENT_SET_NO":999,"REV_AT_EPOCH":37364,"BSTAR":0.00014514568,"MEAN_MOTION_DOT":5.06e-6,"MEAN_MOTION_DDOT":0}]
